[{"OBJECT_NAME":"CALSPHERE 1","OBJECT_ID":"1964-063C","EPOCH":"2026-03-09T22:33:13.790880","MEAN_MOTION":13.76498162,"ECCENTRICITY":0.00237381,"INCLINATION":90.216,"RA_OF_ASC_NODE":69.4558,"ARG_OF_PERICENTER":229.9734,"MEAN_ANOMALY":161.7441,"EPHEMERIS_TYPE":0,"CLASSIFICATION_TYPE":"U","NORAD_CAT_ID":900,"ELEMENT_SET_NO":999,"REV_AT_EPOCH":5777,"BSTAR":0.00076481141,"MEAN_MOTION_DOT":7.59e-6,"MEAN_MOTION_DDOT":0},{"OBJECT_NAME":"SL-14 R\/B","OBJECT_ID":"1989-018B","EPOCH":"2026-03-09T21:16:46.032096","MEAN_MOTION":13.84167547,"ECCENTRICITY":0.00184312,"INCLINATION":82.5174,"RA_OF_ASC_NODE":272.4637,"ARG_OF_PERICENTER":122.2674,"MEAN_ANOMALY":238.0275,"EPHEMERIS_TYPE":0,"CLASSIFICATION_TYPE":"U","NORAD_CAT_ID":19852,"ELEMENT_SET_NO":999,"REV_AT_EPOCH":87030,"BSTAR":2.3436584e-5,"MEAN_MOTION_DOT":4.1e-7,"MEAN_MOTION_DDOT":0}]
